CZ-4B R/B               
1 28415U 04035C   25261.07634268  .00006015  00000+0  23694-3 0  9992
2 28415  97.3739 292.6178 0033785 216.8977 142.9937 15.25443006153566
CZ-2C R/B               
1 28480U 04046B   25261.19954437  .00000197  00000+0  89183-4 0  9993
2 28480  98.1912 181.9297 0138620 305.3411  53.4878 14.26878668 83909
ARIANE 5 R/B            
1 28499U 04049H   25260.93688485  .00001243  00000+0  14479-3 0  9992
2 28499  98.2468  58.1944 0084847 190.0902 169.8612 14.84699930120159
CZ-2D R/B               
1 28738U 05024B   25261.00482942  .00021992  00000+0  43146-3 0  9997
2 28738  97.3703 266.5287 0003253 317.9547  42.1453 15.47353745112977
ALOS (DAICHI)           
1 28931U 06002A   25261.29567872  .00001545  00000+0  27179-3 0  9996
2 28931  98.0935 213.4836 0002317  95.0894 265.0576 14.69025519 48166
H-2A R/B                
1 28932U 06002B   25261.29805929  .00008836  00000+0  49346-3 0  9995
2 28932  98.2228  29.2752 0057784 106.6988 254.0594 15.12349990 68346
RESURS-DK 1             
1 29228U 06021A   25261.14661065  .00002029  00000+0  12599-3 0  9998
2 29228  69.9350 322.9177 0004730 342.4038  17.6963 15.11440244 61449
CZ-4B R/B               
1 29507U 06046C   25261.05219191  .00004725  00000+0  25555-3 0  9995
2 29507  97.5879 301.4275 0036138 142.9317 217.4421 15.14598261 33896
CZ-2C R/B               
1 31114U 07010B   25260.90655879  .00000104  00000+0  66358-4 0  9998
2 31114  98.3894  17.9167 0060171  76.9830 283.8057 14.20160538955194
COSMO-SKYMED 1          
1 31598U 07023A   25261.33548994  .00003552  00000+0  33119-3 0  9993
2 31598  97.8893  86.2136 0001497  90.2594 269.8798 14.94880040989135
COSMOS 2428             
1 31792U 07029A   25261.00240733 -.00000147  00000+0 -53319-4 0  9993
2 31792  70.9429 205.8578 0003514 204.6258 155.4696 14.12903144939703
SL-16 R/B               
1 31793U 07029B   25261.21297872 -.00000190  00000+0 -73697-4 0  9992
2 31793  70.9755 174.9332 0002746 267.7384 254.0389 14.14790703940979
KORONAS-FOTON           
1 33504U 09003A   25260.97142213  .00009563  00000+0  25165-3 0  9995
2 33504  82.4289  94.7730 0012986  60.3494 299.9042 15.38310567919140
CZ-2C R/B               
1 37731U 11030B   25260.90566387  .00001069  00000+0  14340-3 0  9995
2 37731  97.8252 217.0161 0052883 190.9412 234.3426 14.80464195764526
H-2A R/B                
1 38341U 12025E   25260.84398024  .00002132  00000+0  20455-3 0  9998
2 38341  98.4437 209.5911 0046467 155.9920 204.3479 14.93531645722406
SHIJIAN-16 (SJ-16)      
1 39358U 13057A   25261.22903382  .00001670  00000+0  16896-3 0  9995
2 39358  74.9721 151.3950 0016977 174.9558 185.1804 14.91570730645787
SL-4 R/B                
1 39679U 14021B   25260.93988287  .00011068  00000+0  29007-3 0  9997
2 39679  51.6088  96.5290 0109169 195.3683 164.3975 15.33332802629716
ALOS-2                  
1 39766U 14029A   25261.25510844  .00000073  00000+0  16679-4 0  9994
2 39766  97.9225 357.3224 0001409  98.2487 261.8885 14.79470835611379
YAOGAN-29               
1 41038U 15069A   25261.32178807  .00000434  00000+0  60455-4 0  9993
2 41038  98.0316 284.1719 0001953 141.0741 219.0613 14.82736216530339
ASTRO-H (HITOMI)        
1 41337U 16012A   25260.49825534  .00002760  00000+0  16661-3 0  9990
2 41337  31.0008  33.0008 0010086  33.1649 326.9620 15.08533612526046
HXMT (HUIYAN)           
1 42758U 17034A   25261.31054110  .00004282  00000+0  23569-3 0  9995
2 42758  43.0135 253.1866 0034591 228.2639 131.5248 15.14783797456370
CZ-2C R/B               
1 43521U 18054D   25260.45745672  .00039864  00000+0  48864-3 0  9990
2 43521  35.1376  38.6242 0030684  42.3124 317.9965 15.58687640401526
SAOCOM 1A               
1 43641U 18076A   25261.33857264  .00000424  00000+0  59796-4 0  9993
2 43641  97.8897  86.9841 0001375  91.7413 268.3958 14.82155600375834
H-2A R/B                
1 43682U 18084L   25261.05128674  .00014510  00000+0  45012-3 0  9998
2 43682  98.8835  77.6643 0029983 258.7162 101.0706 15.33109961379250
SAOCOM 1B               
1 46265U 20059A   25261.30230017  .00000450  00000+0  63121-4 0  9996
2 46265  97.8888  86.0551 0001530  88.1426 271.9962 14.82158776273216
CSS (TIANHE)            
1 48274U 21035A   25261.12596439  .00029313  00000+0  35912-3 0  9991
2 48274  41.4645 177.1936 0003309   5.6412 354.4463 15.59705520250654
COSMOS 2550             
1 48865U 21056A   25261.23892905 -.00000165  00000+0  79821-6 0  9994
2 48865  67.1411 202.6194 0008255 268.9036  91.1172 15.33831118237019
CZ-2C R/B               
1 52794U 22058K   25261.01453346  .00016190  00000+0  35196-3 0  9999
2 52794  50.1913 118.8231 0054186 199.8242 160.0619 15.42888264183374
GSLV R/B                
1 54149U 22138AN  25260.95483078  .00003118  00000+0  27896-3 0  9995
2 54149  87.3799 224.1764 0024797  62.8085 297.5669 14.95291496158101
XRISM                   
1 57800U 23137A   25261.21270051  .00004891  00000+0  29624-3 0  9997
2 57800  31.0027 317.1789 0008214 107.9568 252.1966 15.08968387111696
ACS3                    
1 59588U 24077B   25260.95091357  .00026889  00000+0  25298-1 0  9998
2 59588  97.3943 235.3582 0043572 344.5422  15.4403 13.80833980 70282
